{
  "type": "FeatureCollection",
  "features": [
    {
      "type": "Feature",
      "properties": {
        "norad_id": 64751,
        "name": "PROGRESS-MS 31",
        "group": "stations",
        "lat": -26.60094163200267,
        "lon": -73.39512287021478,
        "alt_km": 420.4664391455153,
        "timestamp": "2025-12-24T16:52:40.213420+00:00",
        "meta_object_name": "PROGRESS-MS 31",
        "meta_object_id": "2025-146A",
        "meta_epoch": "2025-12-24T05:07:18.077088",
        "meta_mean_motion": 15.49773492,
        "meta_eccentricity": 0.00031703,
        "meta_inclination": 51.6319,
        "meta_ra_of_asc_node": 85.6574,
        "meta_arg_of_pericenter": 294.284,
        "meta_mean_anomaly": 65.7818,
        "meta_ephemeris_type": 0,
        "meta_classification_type": "U",
        "meta_norad_cat_id": 64751,
        "meta_element_set_no": 999,
        "meta_rev_at_epoch": 675,
        "meta_bstar": 0.00022737508,
        "meta_mean_motion_dot": 0.0001244,
        "meta_mean_motion_ddot": 0,
        "tle_line1": "1 64751U 25146A   25358.21340367  .00012440  00000+0  22738-3 0  9995",
        "tle_line2": "2 64751  51.6319  85.6574 0003170 294.2840  65.7818 15.49773492  6759"
      },
      "geometry": {
        "type": "Point",
        "coordinates": [
          -73.39512287021478,
          -26.60094163200267
        ]
      }
    },
    {
      "type": "Feature",
      "properties": {
        "norad_id": 64786,
        "name": "TIANZHOU-9",
        "group": "stations",
        "lat": 38.67703740074648,
        "lon": 9.068209784120196,
        "alt_km": 380.03393284085905,
        "timestamp": "2025-12-24T16:52:40.213430+00:00",
        "meta_object_name": "TIANZHOU-9",
        "meta_object_id": "2025-149A",
        "meta_epoch": "2025-12-24T05:49:05.894976",
        "meta_mean_motion": 15.59630763,
        "meta_eccentricity": 0.00081096,
        "meta_inclination": 41.4687,
        "meta_ra_of_asc_node": 306.8504,
        "meta_arg_of_pericenter": 132.6319,
        "meta_mean_anomaly": 227.5205,
        "meta_ephemeris_type": 0,
        "meta_classification_type": "U",
        "meta_norad_cat_id": 64786,
        "meta_element_set_no": 999,
        "meta_rev_at_epoch": 25530,
        "meta_bstar": 0.00022952509,
        "meta_mean_motion_dot": 0.00018555,
        "meta_mean_motion_ddot": 0,
        "tle_line1": "1 64786U 25149A   25358.24242934  .00018555  00000+0  22953-3 0  9992",
        "tle_line2": "2 64786  41.4687 306.8504 0008109 132.6319 227.5205 15.59630763255305"
      },
      "geometry": {
        "type": "Point",
        "coordinates": [
          9.068209784120196,
          38.67703740074648
        ]
      }
    },
    {
      "type": "Feature",
      "properties": {
        "norad_id": 65077,
        "name": "CREW DRAGON 11",
        "group": "stations",
        "lat": -26.600942561056154,
        "lon": -73.39512186841814,
        "alt_km": 420.4664391639617,
        "timestamp": "2025-12-24T16:52:40.213440+00:00",
        "meta_object_name": "CREW DRAGON 11",
        "meta_object_id": "2025-166A",
        "meta_epoch": "2025-12-24T05:07:18.077088",
        "meta_mean_motion": 15.49773492,
        "meta_eccentricity": 0.00031703,
        "meta_inclination": 51.6319,
        "meta_ra_of_asc_node": 85.6574,
        "meta_arg_of_pericenter": 294.284,
        "meta_mean_anomaly": 65.7818,
        "meta_ephemeris_type": 0,
        "meta_classification_type": "U",
        "meta_norad_cat_id": 65077,
        "meta_element_set_no": 999,
        "meta_rev_at_epoch": 214,
        "meta_bstar": 0.00022737508,
        "meta_mean_motion_dot": 0.0001244,
        "meta_mean_motion_ddot": 0,
        "tle_line1": "1 65077U 25166A   25358.21340367  .00012440  00000+0  22738-3 0  9999",
        "tle_line2": "2 65077  51.6319  85.6574 0003170 294.2840  65.7818 15.49773492  2140"
      },
      "geometry": {
        "type": "Point",
        "coordinates": [
          -73.39512186841814,
          -26.600942561056154
        ]
      }
    },
    {
      "type": "Feature",
      "properties": {
        "norad_id": 65304,
        "name": "DRAGON CRS-33",
        "group": "stations",
        "lat": -26.600943164940848,
        "lon": -73.39512121725042,
        "alt_km": 420.4664391759525,
        "timestamp": "2025-12-24T16:52:40.213453+00:00",
        "meta_object_name": "DRAGON CRS-33",
        "meta_object_id": "2025-186A",
        "meta_epoch": "2025-12-24T05:07:18.077088",
        "meta_mean_motion": 15.49773492,
        "meta_eccentricity": 0.00031703,
        "meta_inclination": 51.6319,
        "meta_ra_of_asc_node": 85.6574,
        "meta_arg_of_pericenter": 294.284,
        "meta_mean_anomaly": 65.7818,
        "meta_ephemeris_type": 0,
        "meta_classification_type": "U",
        "meta_norad_cat_id": 65304,
        "meta_element_set_no": 999,
        "meta_rev_at_epoch": 11,
        "meta_bstar": 0.00022737508,
        "meta_mean_motion_dot": 0.0001244,
        "meta_mean_motion_ddot": 0,
        "tle_line1": "1 65304U 25186A   25358.21340367  .00012440  00000+0  22738-3 0  9994",
        "tle_line2": "2 65304  51.6319  85.6574 0003170 294.2840  65.7818 15.49773492   118"
      },
      "geometry": {
        "type": "Point",
        "coordinates": [
          -73.39512121725042,
          -26.600943164940848
        ]
      }
    },
    {
      "type": "Feature",
      "properties": {
        "norad_id": 65586,
        "name": "PROGRESS-MS 32",
        "group": "stations",
        "lat": -26.600943675920593,
        "lon": -73.39512066626192,
        "alt_km": 420.4664391860979,
        "timestamp": "2025-12-24T16:52:40.213464+00:00",
        "meta_object_name": "PROGRESS-MS 32",
        "meta_object_id": "2025-204A",
        "meta_epoch": "2025-12-24T05:07:18.077088",
        "meta_mean_motion": 15.49773492,
        "meta_eccentricity": 0.00031703,
        "meta_inclination": 51.6319,
        "meta_ra_of_asc_node": 85.6574,
        "meta_arg_of_pericenter": 294.284,
        "meta_mean_anomaly": 65.7818,
        "meta_ephemeris_type": 0,
        "meta_classification_type": "U",
        "meta_norad_cat_id": 65586,
        "meta_element_set_no": 999,
        "meta_rev_at_epoch": 27,
        "meta_bstar": 0.00022737508,
        "meta_mean_motion_dot": 0.0001244,
        "meta_mean_motion_ddot": 0,
        "tle_line1": "1 65586U 25204A   25358.21340367  .00012440  00000+0  22738-3 0  9997",
        "tle_line2": "2 65586  51.6319  85.6574 0003170 294.2840  65.7818 15.49773492   277"
      },
      "geometry": {
        "type": "Point",
        "coordinates": [
          -73.39512066626192,
          -26.600943675920593
        ]
      }
    },
    {
      "type": "Feature",
      "properties": {
        "norad_id": 65616,
        "name": "CYGNUS NG-23",
        "group": "stations",
        "lat": -26.600944140447186,
        "lon": -73.39512016536372,
        "alt_km": 420.4664391953229,
        "timestamp": "2025-12-24T16:52:40.213474+00:00",
        "meta_object_name": "CYGNUS NG-23",
        "meta_object_id": "2025-208A",
        "meta_epoch": "2025-12-24T05:07:18.077088",
        "meta_mean_motion": 15.49773492,
        "meta_eccentricity": 0.00031703,
        "meta_inclination": 51.6319,
        "meta_ra_of_asc_node": 85.6574,
        "meta_arg_of_pericenter": 294.284,
        "meta_mean_anomaly": 65.7818,
        "meta_ephemeris_type": 0,
        "meta_classification_type": "U",
        "meta_norad_cat_id": 65616,
        "meta_element_set_no": 999,
        "meta_rev_at_epoch": 22,
        "meta_bstar": 0.00022737508,
        "meta_mean_motion_dot": 0.0001244,
        "meta_mean_motion_ddot": 0,
        "tle_line1": "1 65616U 25208A   25358.21340367  .00012440  00000+0  22738-3 0  9995",
        "tle_line2": "2 65616  51.6319  85.6574 0003170 294.2840  65.7818 15.49773492   226"
      },
      "geometry": {
        "type": "Point",
        "coordinates": [
          -73.39512016536372,
          -26.600944140447186
        ]
      }
    },
    {
      "type": "Feature",
      "properties": {
        "norad_id": 65729,
        "name": "DRAGONFLY",
        "group": "stations",
        "lat": 15.805953568184831,
        "lon": -118.64648669099142,
        "alt_km": 345.4917119934971,
        "timestamp": "2025-12-24T16:52:40.213484+00:00",
        "meta_object_name": "DRAGONFLY",
        "meta_object_id": "1998-067XH",
        "meta_epoch": "2025-12-23T20:25:05.087712",
        "meta_mean_motion": 15.75691261,
        "meta_eccentricity": 0.0007924,
        "meta_inclination": 51.6249,
        "meta_ra_of_asc_node": 78.7101,
        "meta_arg_of_pericenter": 343.6586,
        "meta_mean_anomaly": 16.4157,
        "meta_ephemeris_type": 0,
        "meta_classification_type": "U",
        "meta_norad_cat_id": 65729,
        "meta_element_set_no": 999,
        "meta_rev_at_epoch": 1491,
        "meta_bstar": 0.0011534,
        "meta_mean_motion_dot": 0.00184258,
        "meta_mean_motion_ddot": 0,
        "tle_line1": "1 65729U 98067XH  25357.85075333  .00184258  00000+0  11534-2 0  9998",
        "tle_line2": "2 65729  51.6249  78.7101 0007924 343.6586  16.4157 15.75691261 14911"
      },
      "geometry": {
        "type": "Point",
        "coordinates": [
          -118.64648669099142,
          15.805953568184831
        ]
      }
    }
  ]
}